{
  "type": "FeatureCollection",
  "features": [
    {
      "type": "Feature",
      "properties": {
        "norad_id": 66439,
        "name": "STARLINK-35327",
        "group": "last-30-days",
        "lat": 8.520748201691807,
        "lon": 115.96064189592424,
        "alt_km": 414.15640782414175,
        "timestamp": "2025-12-02T13:52:16.064681+00:00",
        "meta_object_name": "STARLINK-35327",
        "meta_object_id": "2025-259T",
        "meta_epoch": "2025-12-02T06:00:02.999808",
        "meta_mean_motion": 15.50477173,
        "meta_eccentricity": 0.0001431,
        "meta_inclination": 42.9995,
        "meta_ra_of_asc_node": 108.6268,
        "meta_arg_of_pericenter": 253.3671,
        "meta_mean_anomaly": 86.6108,
        "meta_ephemeris_type": 0,
        "meta_classification_type": "U",
        "meta_norad_cat_id": 66439,
        "meta_element_set_no": 999,
        "meta_rev_at_epoch": 459,
        "meta_bstar": 0.0018646224,
        "meta_mean_motion_dot": 0.00110199,
        "meta_mean_motion_ddot": 0,
        "tle_line1": "1 66439U 25259T   25336.25003472  .00110199  00000+0  18646-2 0  9990",
        "tle_line2": "2 66439  42.9995 108.6268 0001431 253.3671  86.6108 15.50477173  4592"
      },
      "geometry": {
        "type": "Point",
        "coordinates": [
          115.96064189592424,
          8.520748201691807
        ]
      }
    },
    {
      "type": "Feature",
      "properties": {
        "norad_id": 66440,
        "name": "STARLINK-35405",
        "group": "last-30-days",
        "lat": 13.616784694769764,
        "lon": 121.75564005712329,
        "alt_km": 413.54438022679824,
        "timestamp": "2025-12-02T13:52:16.064693+00:00",
        "meta_object_name": "STARLINK-35405",
        "meta_object_id": "2025-259U",
        "meta_epoch": "2025-12-02T06:00:02.999808",
        "meta_mean_motion": 15.504661,
        "meta_eccentricity": 0.00014949,
        "meta_inclination": 42.9996,
        "meta_ra_of_asc_node": 108.6066,
        "meta_arg_of_pericenter": 254.7689,
        "meta_mean_anomaly": 92.8683,
        "meta_ephemeris_type": 0,
        "meta_classification_type": "U",
        "meta_norad_cat_id": 66440,
        "meta_element_set_no": 999,
        "meta_rev_at_epoch": 459,
        "meta_bstar": 0.0018483955,
        "meta_mean_motion_dot": 0.00109179,
        "meta_mean_motion_ddot": 0,
        "tle_line1": "1 66440U 25259U   25336.25003472  .00109179  00000+0  18484-2 0  9998",
        "tle_line2": "2 66440  42.9996 108.6066 0001494 254.7689  92.8683 15.50466100  4599"
      },
      "geometry": {
        "type": "Point",
        "coordinates": [
          121.75564005712329,
          13.616784694769764
        ]
      }
    },
    {
      "type": "Feature",
      "properties": {
        "norad_id": 66441,
        "name": "STARLINK-35426",
        "group": "last-30-days",
        "lat": 14.875231293629708,
        "lon": 123.24442537268392,
        "alt_km": 413.3815223282145,
        "timestamp": "2025-12-02T13:52:16.064703+00:00",
        "meta_object_name": "STARLINK-35426",
        "meta_object_id": "2025-259V",
        "meta_epoch": "2025-12-02T06:00:02.999808",
        "meta_mean_motion": 15.50464621,
        "meta_eccentricity": 0.00014598,
        "meta_inclination": 42.9995,
        "meta_ra_of_asc_node": 108.6011,
        "meta_arg_of_pericenter": 253.4993,
        "meta_mean_anomaly": 96.0568,
        "meta_ephemeris_type": 0,
        "meta_classification_type": "U",
        "meta_norad_cat_id": 66441,
        "meta_element_set_no": 999,
        "meta_rev_at_epoch": 459,
        "meta_bstar": 0.0018996888,
        "meta_mean_motion_dot": 0.00112257,
        "meta_mean_motion_ddot": 0,
        "tle_line1": "1 66441U 25259V   25336.25003472  .00112257  00000+0  18997-2 0  9999",
        "tle_line2": "2 66441  42.9995 108.6011 0001459 253.4993  96.0568 15.50464621  4598"
      },
      "geometry": {
        "type": "Point",
        "coordinates": [
          123.24442537268392,
          14.875231293629708
        ]
      }
    },
    {
      "type": "Feature",
      "properties": {
        "norad_id": 66442,
        "name": "STARLINK-34724",
        "group": "last-30-days",
        "lat": 16.192151196185712,
        "lon": 124.83633045015493,
        "alt_km": 413.24583428341975,
        "timestamp": "2025-12-02T13:52:16.064714+00:00",
        "meta_object_name": "STARLINK-34724",
        "meta_object_id": "2025-259W",
        "meta_epoch": "2025-12-02T06:00:02.999808",
        "meta_mean_motion": 15.5056635,
        "meta_eccentricity": 0.00020029,
        "meta_inclination": 42.9993,
        "meta_ra_of_asc_node": 108.5978,
        "meta_arg_of_pericenter": 262.0899,
        "meta_mean_anomaly": 89.4169,
        "meta_ephemeris_type": 0,
        "meta_classification_type": "U",
        "meta_norad_cat_id": 66442,
        "meta_element_set_no": 999,
        "meta_rev_at_epoch": 459,
        "meta_bstar": -0.00052433511,
        "meta_mean_motion_dot": -0.00030968,
        "meta_mean_motion_ddot": 0,
        "tle_line1": "1 66442U 25259W   25336.25003472 -.00030968  00000+0 -52434-3 0  9995",
        "tle_line2": "2 66442  42.9993 108.5978 0002002 262.0899  89.4169 15.50566350  4599"
      },
      "geometry": {
        "type": "Point",
        "coordinates": [
          124.83633045015493,
          16.192151196185712
        ]
      }
    },
    {
      "type": "Feature",
      "properties": {
        "norad_id": 66443,
        "name": "STARLINK-35219",
        "group": "last-30-days",
        "lat": 17.430575590502674,
        "lon": 126.36327843520826,
        "alt_km": 413.02690566145156,
        "timestamp": "2025-12-02T13:52:16.064726+00:00",
        "meta_object_name": "STARLINK-35219",
        "meta_object_id": "2025-259X",
        "meta_epoch": "2025-12-02T06:00:02.999808",
        "meta_mean_motion": 15.50564064,
        "meta_eccentricity": 0.00018778,
        "meta_inclination": 42.9993,
        "meta_ra_of_asc_node": 108.5914,
        "meta_arg_of_pericenter": 263.4198,
        "meta_mean_anomaly": 90.0099,
        "meta_ephemeris_type": 0,
        "meta_classification_type": "U",
        "meta_norad_cat_id": 66443,
        "meta_element_set_no": 999,
        "meta_rev_at_epoch": 448,
        "meta_bstar": -0.0005144036,
        "meta_mean_motion_dot": -0.00030387,
        "meta_mean_motion_ddot": 0,
        "tle_line1": "1 66443U 25259X   25336.25003472 -.00030387  00000+0 -51440-3 0  9997",
        "tle_line2": "2 66443  42.9993 108.5914 0001877 263.4198  90.0099 15.50564064  4484"
      },
      "geometry": {
        "type": "Point",
        "coordinates": [
          126.36327843520826,
          17.430575590502674
        ]
      }
    },
    {
      "type": "Feature",
      "properties": {
        "norad_id": 66444,
        "name": "STARLINK-35360",
        "group": "last-30-days",
        "lat": 20.989070802655682,
        "lon": 130.97078475373587,
        "alt_km": 412.6293347981564,
        "timestamp": "2025-12-02T13:52:16.064736+00:00",
        "meta_object_name": "STARLINK-35360",
        "meta_object_id": "2025-259Y",
        "meta_epoch": "2025-12-02T06:00:02.999808",
        "meta_mean_motion": 15.50466945,
        "meta_eccentricity": 0.00016201,
        "meta_inclination": 42.9997,
        "meta_ra_of_asc_node": 108.577,
        "meta_arg_of_pericenter": 252.1824,
        "meta_mean_anomaly": 106.9388,
        "meta_ephemeris_type": 0,
        "meta_classification_type": "U",
        "meta_norad_cat_id": 66444,
        "meta_element_set_no": 999,
        "meta_rev_at_epoch": 459,
        "meta_bstar": 0.0019340501,
        "meta_mean_motion_dot": 0.00114334,
        "meta_mean_motion_ddot": 0,
        "tle_line1": "1 66444U 25259Y   25336.25003472  .00114334  00000+0  19341-2 0  9994",
        "tle_line2": "2 66444  42.9997 108.5770 0001620 252.1824 106.9388 15.50466945  4595"
      },
      "geometry": {
        "type": "Point",
        "coordinates": [
          130.97078475373587,
          20.989070802655682
        ]
      }
    },
    {
      "type": "Feature",
      "properties": {
        "norad_id": 66445,
        "name": "STARLINK-34698",
        "group": "last-30-days",
        "lat": 18.580803878149208,
        "lon": 127.8150075750128,
        "alt_km": 412.93896776507154,
        "timestamp": "2025-12-02T13:52:16.064746+00:00",
        "meta_object_name": "STARLINK-34698",
        "meta_object_id": "2025-259Z",
        "meta_epoch": "2025-12-02T06:00:02.999808",
        "meta_mean_motion": 15.50461107,
        "meta_eccentricity": 0.00015224,
        "meta_inclination": 42.9996,
        "meta_ra_of_asc_node": 108.5868,
        "meta_arg_of_pericenter": 251.5622,
        "meta_mean_anomaly": 103.7387,
        "meta_ephemeris_type": 0,
        "meta_classification_type": "U",
        "meta_norad_cat_id": 66445,
        "meta_element_set_no": 999,
        "meta_rev_at_epoch": 448,
        "meta_bstar": 0.0019403037,
        "meta_mean_motion_dot": 0.00114686,
        "meta_mean_motion_ddot": 0,
        "tle_line1": "1 66445U 25259Z   25336.25003472  .00114686  00000+0  19403-2 0  9994",
        "tle_line2": "2 66445  42.9996 108.5868 0001522 251.5622 103.7387 15.50461107  4480"
      },
      "geometry": {
        "type": "Point",
        "coordinates": [
          127.8150075750128,
          18.580803878149208
        ]
      }
    }
  ]
}